{"type": "FeatureCollection", "features": [ {"type": "Feature", "properties": {"norad_id": 66825, "name": "STARLINK-35476", "group": "last-30-days", "lat": 10.776212536893402, "lon": 8.832969196408644, "alt_km": 353.9364772685294, "timestamp": "2025-12-14T20:40:30.516718+00:00", "meta": {"OBJECT_NAME": "STARLINK-35476", "OBJECT_ID": "2025-280E", "EPOCH": "2025-12-14T06:00:02.999808", "MEAN_MOTION": 15.7460275, "ECCENTRICITY": 0.00036953, "INCLINATION": 69.9947, "RA_OF_ASC_NODE": 194.5367, "ARG_OF_PERICENTER": 273.1984, "MEAN_ANOMALY": 32.9489, "EPHEMERIS_TYPE": 0, "CLASSIFICATION_TYPE": "U", "NORAD_CAT_ID": 66825, "ELEMENT_SET_NO": 999, "REV_AT_EPOCH": 299, "BSTAR": -0.013540588, "MEAN_MOTION_DOT": -0.01749479, "MEAN_MOTION_DDOT": 0}, "tle": {"line1": "1 66825U 25280E   25348.25003472 -.01749479  00000+0 -13541-1 0  9996", "line2": "2 66825  69.9947 194.5367 0003695 273.1984  32.9489 15.74602750  2997"}}, "geometry": {"type": "Point", "coordinates": [8.832969196408644, 10.776212536893402]}}, {"type": "Feature", "properties": {"norad_id": 66826, "name": "STARLINK-35898", "group": "last-30-days", "lat": 8.973387247247153, "lon": 9.508529684179527, "alt_km": 354.01420922971283, "timestamp": "2025-12-14T20:40:30.516728+00:00", "meta": {"OBJECT_NAME": "STARLINK-35898", "OBJECT_ID": "2025-280F", "EPOCH": "2025-12-14T06:00:02.999808", "MEAN_MOTION": 15.74614758, "ECCENTRICITY": 0.00035438, "INCLINATION": 69.9943, "RA_OF_ASC_NODE": 194.5342, "ARG_OF_PERICENTER": 270.8985, "MEAN_ANOMALY": 37.1578, "EPHEMERIS_TYPE": 0, "CLASSIFICATION_TYPE": "U", "NORAD_CAT_ID": 66826, "ELEMENT_SET_NO": 999, "REV_AT_EPOCH": 314, "BSTAR": -0.013616639, "MEAN_MOTION_DOT": -0.01758787, "MEAN_MOTION_DDOT": 0}, "tle": {"line1": "1 66826U 25280F   25348.25003472 -.01758787  00000+0 -13617-1 0  9993", "line2": "2 66826  69.9943 194.5342 0003543 270.8985  37.1578 15.74614758  3149"}}, "geometry": {"type": "Point", "coordinates": [9.508529684179527, 8.973387247247153]}}, {"type": "Feature", "properties": {"norad_id": 66827, "name": "STARLINK-35959", "group": "last-30-days", "lat": 7.194193078595589, "lon": 10.168733091104633, "alt_km": 354.3407328084313, "timestamp": "2025-12-14T20:40:30.516738+00:00", "meta": {"OBJECT_NAME": "STARLINK-35959", "OBJECT_ID": "2025-280G", "EPOCH": "2025-12-14T06:00:02.999808", "MEAN_MOTION": 15.74580997, "ECCENTRICITY": 0.00036673, "INCLINATION": 69.9945, "RA_OF_ASC_NODE": 194.532, "ARG_OF_PERICENTER": 271.5731, "MEAN_ANOMALY": 38.4542, "EPHEMERIS_TYPE": 0, "CLASSIFICATION_TYPE": "U", "NORAD_CAT_ID": 66827, "ELEMENT_SET_NO": 999, "REV_AT_EPOCH": 314, "BSTAR": -0.01363551, "MEAN_MOTION_DOT": -0.01758771, "MEAN_MOTION_DDOT": 0}, "tle": {"line1": "1 66827U 25280G   25348.25003472 -.01758771  00000+0 -13636-1 0  9998", "line2": "2 66827  69.9945 194.5320 0003667 271.5731  38.4542 15.74580997  3144"}}, "geometry": {"type": "Point", "coordinates": [10.168733091104633, 7.194193078595589]}}, {"type": "Feature", "properties": {"norad_id": 66828, "name": "STARLINK-35982", "group": "last-30-days", "lat": 3.640819612838763, "lon": 11.471919061650627, "alt_km": 354.82500977543714, "timestamp": "2025-12-14T20:40:30.516752+00:00", "meta": {"OBJECT_NAME": "STARLINK-35982", "OBJECT_ID": "2025-280H", "EPOCH": "2025-12-14T06:00:02.999808", "MEAN_MOTION": 15.74476633, "ECCENTRICITY": 0.00036175, "INCLINATION": 69.9946, "RA_OF_ASC_NODE": 194.5274, "ARG_OF_PERICENTER": 269.3398, "MEAN_ANOMALY": 44.6725, "EPHEMERIS_TYPE": 0, "CLASSIFICATION_TYPE": "U", "NORAD_CAT_ID": 66828, "ELEMENT_SET_NO": 999, "REV_AT_EPOCH": 314, "BSTAR": -0.013549658, "MEAN_MOTION_DOT": -0.01741966, "MEAN_MOTION_DDOT": 0}, "tle": {"line1": "1 66828U 25280H   25348.25003472 -.01741966  00000+0 -13550-1 0  9992", "line2": "2 66828  69.9946 194.5274 0003617 269.3398  44.6725 15.74476633  3146"}}, "geometry": {"type": "Point", "coordinates": [11.471919061650627, 3.640819612838763]}}, {"type": "Feature", "properties": {"norad_id": 66829, "name": "STARLINK-36084", "group": "last-30-days", "lat": 5.440173663895891, "lon": 10.813858059600323, "alt_km": 354.61740252260915, "timestamp": "2025-12-14T20:40:30.516762+00:00", "meta": {"OBJECT_NAME": "STARLINK-36084", "OBJECT_ID": "2025-280J", "EPOCH": "2025-12-14T06:00:02.999808", "MEAN_MOTION": 15.74549777, "ECCENTRICITY": 0.00037119, "INCLINATION": 69.9945, "RA_OF_ASC_NODE": 194.5295, "ARG_OF_PERICENTER": 268.8802, "MEAN_ANOMALY": 43.134, "EPHEMERIS_TYPE": 0, "CLASSIFICATION_TYPE": "U", "NORAD_CAT_ID": 66829, "ELEMENT_SET_NO": 999, "REV_AT_EPOCH": 298, "BSTAR": -0.013926034, "MEAN_MOTION_DOT": -0.01789554, "MEAN_MOTION_DDOT": 0}, "tle": {"line1": "1 66829U 25280J   25348.25003472 -.01789554  00000+0 -13926-1 0  9995", "line2": "2 66829  69.9945 194.5295 0003711 268.8802  43.1340 15.74549777  2986"}}, "geometry": {"type": "Point", "coordinates": [10.813858059600323, 5.440173663895891]}}, {"type": "Feature", "properties": {"norad_id": 66830, "name": "STARLINK-35881", "group": "last-30-days", "lat": 1.8387730611406106, "lon": 12.126982593298985, "alt_km": 355.0661874034686, "timestamp": "2025-12-14T20:40:30.516772+00:00", "meta": {"OBJECT_NAME": "STARLINK-35881", "OBJECT_ID": "2025-280K", "EPOCH": "2025-12-14T06:00:02.999808", "MEAN_MOTION": 15.74490634, "ECCENTRICITY": 0.00034994, "INCLINATION": 69.9942, "RA_OF_ASC_NODE": 194.5243, "ARG_OF_PERICENTER": 270.8757, "MEAN_ANOMALY": 45.0402, "EPHEMERIS_TYPE": 0, "CLASSIFICATION_TYPE": "U", "NORAD_CAT_ID": 66830, "ELEMENT_SET_NO": 999, "REV_AT_EPOCH": 314, "BSTAR": -0.013642319, "MEAN_MOTION_DOT": -0.0175328, "MEAN_MOTION_DDOT": 0}, "tle": {"line1": "1 66830U 25280K   25348.25003472 -.01753280  00000+0 -13642-1 0  9999", "line2": "2 66830  69.9942 194.5243 0003499 270.8757  45.0402 15.74490634  3149"}}, "geometry": {"type": "Point", "coordinates": [12.126982593298985, 1.8387730611406106]}}, {"type": "Feature", "properties": {"norad_id": 66831, "name": "STARLINK-35788", "group": "last-30-days", "lat": 0.03826500366027405, "lon": 12.781896897771162, "alt_km": 355.202045758434, "timestamp": "2025-12-14T20:40:30.516784+00:00", "meta": {"OBJECT_NAME": "STARLINK-35788", "OBJECT_ID": "2025-280L", "EPOCH": "2025-12-14T06:00:02.999808", "MEAN_MOTION": 15.74500852, "ECCENTRICITY": 0.0003633, "INCLINATION": 69.995, "RA_OF_ASC_NODE": 194.5229, "ARG_OF_PERICENTER": 270.2113, "MEAN_ANOMALY": 47.6095, "EPHEMERIS_TYPE": 0, "CLASSIFICATION_TYPE": "U", "NORAD_CAT_ID": 66831, "ELEMENT_SET_NO": 999, "REV_AT_EPOCH": 314, "BSTAR": -0.013688753, "MEAN_MOTION_DOT": -0.01759352, "MEAN_MOTION_DDOT": 0}, "tle": {"line1": "1 66831U 25280L   25348.25003472 -.01759352  00000+0 -13689-1 0  9997", "line2": "2 66831  69.9950 194.5229 0003633 270.2113  47.6095 15.74500852  3143"}}, "geometry": {"type": "Point", "coordinates": [12.781896897771162, 0.03826500366027405]}}, {"type": "Feature", "properties": {"norad_id": 66832, "name": "STARLINK-35768", "group": "last-30-days", "lat": -1.7602188003770887, "lon": 13.434003592156923, "alt_km": 355.36447720250453, "timestamp": "2025-12-14T20:40:30.516794+00:00", "meta": {"OBJECT_NAME": "STARLINK-35768", "OBJECT_ID": "2025-280M", "EPOCH": "2025-12-14T06:00:02.999808", "MEAN_MOTION": 15.74517832, "ECCENTRICITY": 0.00036124, "INCLINATION": 69.994, "RA_OF_ASC_NODE": 194.5196, "ARG_OF_PERICENTER": 269.8577, "MEAN_ANOMALY": 49.8655, "EPHEMERIS_TYPE": 0, "CLASSIFICATION_TYPE": "U", "NORAD_CAT_ID": 66832, "ELEMENT_SET_NO": 999, "REV_AT_EPOCH": 314, "BSTAR": -0.013823463, "MEAN_MOTION_DOT": -0.01775701, "MEAN_MOTION_DDOT": 0}, "tle": {"line1": "1 66832U 25280M   25348.25003472 -.01775701  00000+0 -13823-1 0  9994", "line2": "2 66832  69.9940 194.5196 0003612 269.8577  49.8655 15.74517832  3143"}}, "geometry": {"type": "Point", "coordinates": [13.434003592156923, -1.7602188003770887]}}, {"type": "Feature", "properties": {"norad_id": 66833, "name": "STARLINK-35858", "group": "last-30-days", "lat": -3.5569418815141973, "lon": 14.088716144372933, "alt_km": 355.5875601743892, "timestamp": "2025-12-14T20:40:30.516810+00:00", "meta": {"OBJECT_NAME": "STARLINK-35858", "OBJECT_ID": "2025-280N", "EPOCH": "2025-12-14T06:00:02.999808", "MEAN_MOTION": 15.74440089, "ECCENTRICITY": 0.0003496, "INCLINATION": 69.9946, "RA_OF_ASC_NODE": 194.518, "ARG_OF_PERICENTER": 270.988, "MEAN_ANOMALY": 50.7365, "EPHEMERIS_TYPE": 0, "CLASSIFICATION_TYPE": "U", "NORAD_CAT_ID": 66833, "ELEMENT_SET_NO": 999, "REV_AT_EPOCH": 314, "BSTAR": -0.013428229, "MEAN_MOTION_DOT": -0.01725648, "MEAN_MOTION_DDOT": 0}, "tle": {"line1": "1 66833U 25280N   25348.25003472 -.01725648  00000+0 -13428-1 0  9991", "line2": "2 66833  69.9946 194.5180 0003496 270.9880  50.7365 15.74440089  3141"}}, "geometry": {"type": "Point", "coordinates": [14.088716144372933, -3.5569418815141973]}}, {"type": "Feature", "properties": {"norad_id": 66834, "name": "STARLINK-35840", "group": "last-30-days", "lat": -5.356752907887939, "lon": 14.745780222779711, "alt_km": 355.64022286279305, "timestamp": "2025-12-14T20:40:30.516820+00:00", "meta": {"OBJECT_NAME": "STARLINK-35840", "OBJECT_ID": "2025-280P", "EPOCH": "2025-12-14T06:00:02.999808", "MEAN_MOTION": 15.74448892, "ECCENTRICITY": 0.00034822, "INCLINATION": 69.9941, "RA_OF_ASC_NODE": 194.515, "ARG_OF_PERICENTER": 268.3471, "MEAN_ANOMALY": 55.2882, "EPHEMERIS_TYPE": 0, "CLASSIFICATION_TYPE": "U", "NORAD_CAT_ID": 66834, "ELEMENT_SET_NO": 999, "REV_AT_EPOCH": 314, "BSTAR": -0.013502331, "MEAN_MOTION_DOT": -0.0173462, "MEAN_MOTION_DDOT": 0}, "tle": {"line1": "1 66834U 25280P   25348.25003472 -.01734620  00000+0 -13502-1 0  9995", "line2": "2 66834  69.9941 194.5150 0003482 268.3471  55.2882 15.74448892  3140"}}, "geometry": {"type": "Point", "coordinates": [14.745780222779711, -5.356752907887939]}}]}